NORAD_CAT_ID,OBJECT_NAME,OBJECT_TYPE,EPOCH,MEAN_MOTION,ECCENTRICITY,INCLINATION,RA_OF_ASC_NODE,ARG_OF_PERICENTER,MEAN_ANOMALY,BSTAR,MEAN_MOTION_DOT,MEAN_MOTION_DDOT,TLE_LINE0,TLE_LINE1,TLE_LINE2,SEMIMAJOR_AXIS,PERIOD,APOGEE,PERIGEE,DECAYED
52997.0,STARLINK-4301,PAYLOAD,2023-12-22 13:36:27,15.24745396,0.0003152,53.2436,97.2486,81.9053,278.2304,0.0008359,0.00020691,0.0,0 STARLINK-4301,1 52997U 22076M   23356.56698611  .00020691  00000-0  83590-3 0  9996,2 52997  53.2436  97.2486 0003152  81.9053 278.2304 15.24745396 81203,6869.687,94.442,493.717,489.387,0.0
52997.0,STARLINK-4301,PAYLOAD,2023-12-23 13:12:17,15.24774297,0.0003158,53.2439,92.723,80.5776,279.5581,0.0006946,0.00017142,0.0,0 STARLINK-4301,1 52997U 22076M   23357.55020678  .00017142  00000-0  69460-3 0  9995,2 52997  53.2439  92.7230 0003158  80.5776 279.5581 15.24774297 81355,6869.6,94.44,493.635,489.296,0.0
52997.0,STARLINK-4301,PAYLOAD,2023-12-23 16:21:04,15.24778277,0.0003175,53.2438,92.1205,79.2287,280.907,0.0006981,0.00017233,0.0,0 STARLINK-4301,1 52997U 22076M   23357.68130168  .00017233  00000-0  69810-3 0  9995,2 52997  53.2438  92.1205 0003175  79.2287 280.9070 15.24778277 81846,6869.588,94.44,493.634,489.272,0.0
52997.0,STARLINK-4301,PAYLOAD,2023-12-24 11:13:43,15.24795475,0.000325,53.2446,88.5041,82.6818,277.4551,0.00055184,0.00013551,0.0,0 STARLINK-4301,1 52997U 22076M   23358.46786440  .00013551  00000-0  55184-3 0  9990,2 52997  53.2446  88.5041 0003250  82.6818 277.4551 15.24795475 81961,6869.537,94.439,493.634,489.169,0.0
52997.0,STARLINK-4301,PAYLOAD,2023-12-24 12:48:06,15.24798247,0.0003251,53.2447,88.2027,82.6367,277.5002,0.00058255,0.00014327,0.0,0 STARLINK-4301,1 52997U 22076M   23358.53341068  .00014327  00000-0  58255-3 0  9995,2 52997  53.2447  88.2027 0003251  82.6367 277.5002 15.24798247 81505,6869.528,94.439,493.627,489.16,0.0
52997.0,STARLINK-4301,PAYLOAD,2023-12-24 15:56:53,15.24804814,0.0003232,53.2445,87.599,81.1241,279.0124,0.00064556,0.0001592,0.0,0 STARLINK-4301,1 52997U 22076M   23358.66450257  .00015920  00000-0  64556-3 0  9991,2 52997  53.2445  87.5990 0003232  81.1241 279.0124 15.24804814 81520,6869.509,94.438,493.594,489.153,0.0
52997.0,STARLINK-4301,PAYLOAD,2023-12-25 12:23:53,15.24824285,0.0003286,53.245,83.6814,80.5612,279.5758,0.00052202,0.00012811,0.0,0 STARLINK-4301,1 52997U 22076M   23359.51659668  .00012811  00000-0  52202-3 0  9994,2 52997  53.2450  83.6814 0003286  80.5612 279.5758 15.24824285 82121,6869.45,94.437,493.572,489.058,0.0
52997.0,STARLINK-4301,PAYLOAD,2023-12-26 11:59:39,15.24849361,0.0003338,53.2455,79.1607,79.7873,280.3503,0.00047786,0.00011705,0.0,0 STARLINK-4301,1 52997U 22076M   23360.49976577  .00011705  00000-0  47786-3 0  9996,2 52997  53.2455  79.1607 0003338  79.7873 280.3503 15.24849361 81807,6869.375,94.436,493.533,488.947,0.0
52997.0,STARLINK-4301,PAYLOAD,2023-12-26 15:08:25,15.24853004,0.0003348,53.2456,78.5581,79.794,280.3437,0.00048771,0.00011955,0.0,0 STARLINK-4301,1 52997U 22076M   23360.63085381  .00011955  00000-0  48771-3 0  9998,2 52997  53.2456  78.5581 0003348  79.7940 280.3437 15.24853004 82297,6869.364,94.435,493.529,488.929,0.0
52997.0,STARLINK-4301,PAYLOAD,2023-12-27 11:35:24,15.24874143,0.0003421,53.2463,74.6412,81.6234,278.5153,0.00047525,0.00011648,0.0,0 STARLINK-4301,1 52997U 22076M   23361.48291876  .00011648  00000-0  47525-3 0  9995,2 52997  53.2463  74.6412 0003421  81.6234 278.5153 15.24874143 81958,6869.3,94.434,493.515,488.815,0.0
52997.0,STARLINK-4301,PAYLOAD,2023-12-28 11:11:07,15.24895916,0.000349,53.2467,70.1205,81.9727,278.1668,0.00042028,0.00010266,0.0,0 STARLINK-4301,1 52997U 22076M   23362.46605684  .00010266  00000-0  42028-3 0  9998,2 52997  53.2467  70.1205 0003490  81.9727 278.1668 15.24895916 82576,6869.235,94.433,493.497,488.703,0.0
52997.0,STARLINK-4301,PAYLOAD,2023-12-28 14:19:52,15.24898624,0.0003493,53.2467,69.5178,81.7554,278.3842,0.00041747,0.00010196,0.0,0 STARLINK-4301,1 52997U 22076M   23362.59714100  .00010196  00000-0  41747-3 0  9995,2 52997  53.2467  69.5178 0003493  81.7554 278.3842 15.24898624 82122,6869.227,94.433,493.491,488.692,0.0
52997.0,STARLINK-4301,PAYLOAD,2023-12-29 10:46:49,15.24916313,0.0003566,53.2473,65.6,83.3638,276.7768,0.00040774,9.956e-05,0.0,0 STARLINK-4301,1 52997U 22076M   23363.44918149  .00009956  00000-0  40774-3 0  9990,2 52997  53.2473  65.6000 0003566  83.3638 276.7768 15.24916313 82251,6869.174,94.431,493.488,488.589,0.0
52997.0,STARLINK-4301,PAYLOAD,2023-12-29 23:21:51,15.2492677,0.0003566,53.2473,63.189,83.66,276.4806,0.00038977,9.504e-05,0.0,0 STARLINK-4301,1 52997U 22076M   23363.97350907  .00009504  00000-0  38977-3 0  9991,2 52997  53.2473  63.1890 0003566  83.6600 276.4806 15.24926770 82802,6869.142,94.431,493.457,488.558,0.0
52997.0,STARLINK-4301,PAYLOAD,2023-12-30 10:22:30,15.24935612,0.0003596,53.2474,61.0792,84.2404,275.9005,0.00038176,9.304e-05,0.0,0 STARLINK-4301,1 52997U 22076M   23364.43229304  .00009304  00000-0  38176-3 0  9998,2 52997  53.2474  61.0792 0003596  84.2404 275.9005 15.24935612 82409,6869.116,94.43,493.451,488.511,0.0
52997.0,STARLINK-4301,PAYLOAD,2023-12-31 09:58:09,15.24952461,0.0003639,53.2477,56.5582,86.4566,273.685,0.00033454,8.114e-05,0.0,0 STARLINK-4301,1 52997U 22076M   23365.41539280  .00008114  00000-0  33454-3 0  9996,2 52997  53.2477  56.5582 0003639  86.4566 273.6850 15.24952461 83022,6869.065,94.429,493.43,488.431,0.0
52997.0,STARLINK-4301,PAYLOAD,2023-12-31 13:06:55,15.24955282,0.0003647,53.2477,55.9554,85.5628,274.5788,0.00034498,8.379e-05,0.0,0 STARLINK-4301,1 52997U 22076M   23365.54647204  .00008379  00000-0  34498-3 0  9998,2 52997  53.2477  55.9554 0003647  85.5628 274.5788 15.24955282 82575,6869.057,94.429,493.427,488.417,0.0
52997.0,STARLINK-4301,PAYLOAD,2024-01-01 12:42:34,15.24971199,0.0003694,53.2479,51.4345,84.7537,275.3884,0.00032571,7.895e-05,0.0,0 STARLINK-4301,1 52997U 22076M   24001.52956021  .00007895  00000-0  32571-3 0  9996,2 52997  53.2479  51.4345 0003694  84.7537 275.3884 15.24971199 82726,6869.009,94.428,493.411,488.337,0.0
52997.0,STARLINK-4301,PAYLOAD,2024-01-02 09:09:26,15.24987372,0.000372,53.248,47.516,84.6521,275.4903,0.00036831,8.979e-05,0.0,0 STARLINK-4301,1 52997U 22076M   24002.38156093  .00008979  00000-0  36831-3 0  9999,2 52997  53.2480  47.5160 0003720  84.6521 275.4903 15.24987372 82858,6868.96,94.427,493.381,488.27,0.0
52997.0,STARLINK-4301,PAYLOAD,2024-01-03 02:27:34,15.24998432,0.0003754,53.2481,44.2005,84.4071,275.7357,0.00032968,8.003e-05,0.0,0 STARLINK-4301,1 52997U 22076M   24003.10247849  .00008003  00000-0  32968-3 0  9995,2 52997  53.2481  44.2005 0003754  84.4071 275.7357 15.24998432 83436,6868.927,94.426,493.371,488.214,0.0
52997.0,STARLINK-4301,PAYLOAD,2024-01-03 10:19:26,15.25003068,0.0003773,53.2483,42.6936,84.2272,275.9157,0.00031201,7.556e-05,0.0,0 STARLINK-4301,1 52997U 22076M   24003.43016651  .00007556  00000-0  31201-3 0  9997,2 52997  53.2483  42.6936 0003773  84.2272 275.9157 15.25003068 83012,6868.913,94.426,493.37,488.187,0.0
52997.0,STARLINK-4301,PAYLOAD,2024-01-04 09:55:02,15.25019231,0.0003815,53.2485,38.1727,84.2949,275.8485,0.00031418,7.615e-05,0.0,0 STARLINK-4301,1 52997U 22076M   24004.41322357  .00007615  00000-0  31418-3 0  9995,2 52997  53.2485  38.1727 0003815  84.2949 275.8485 15.25019231 83630,6868.865,94.425,493.35,488.109,0.0
52997.0,STARLINK-4301,PAYLOAD,2024-01-05 11:05:00,15.25034928,0.0003862,53.2487,33.3506,85.3896,274.7545,0.00029606,7.159e-05,0.0,0 STARLINK-4301,1 52997U 22076M   24005.46180695  .00007159  00000-0  29606-3 0  9997,2 52997  53.2487  33.3506 0003862  85.3896 274.7545 15.25034928 83791,6868.818,94.424,493.335,488.03,0.0
52997.0,STARLINK-4301,PAYLOAD,2024-01-06 09:06:12,15.25048524,0.0003891,53.2486,29.1312,86.3377,273.8067,0.00028049,6.767e-05,0.0,0 STARLINK-4301,1 52997U 22076M   24006.37930813  .00006767  00000-0  28049-3 0  9997,2 52997  53.2486  29.1312 0003891  86.3377 273.8067 15.25048524 83465,6868.777,94.423,493.314,487.969,0.0
52997.0,STARLINK-4301,PAYLOAD,2024-01-07 00:49:54,15.25058799,0.0003902,53.2485,26.1172,87.6478,272.4968,0.00027422,6.61e-05,0.0,0 STARLINK-4301,1 52997U 22076M   24007.03466060  .00006610  00000-0  27422-3 0  9990,2 52997  53.2485  26.1172 0003902  87.6478 272.4968 15.25058799 84038,6868.746,94.423,493.291,487.931,0.0
52997.0,STARLINK-4301,PAYLOAD,2024-01-07 07:07:23,15.25063042,0.0003911,53.2484,24.9116,88.2668,271.8779,0.00028764,6.952e-05,0.0,0 STARLINK-4301,1 52997U 22076M   24007.29680052  .00006952  00000-0  28764-3 0  9996,2 52997  53.2484  24.9116 0003911  88.2668 271.8779 15.25063042 83601,6868.733,94.422,493.284,487.912,0.0
52997.0,STARLINK-4301,PAYLOAD,2024-01-08 08:17:18,15.25079945,0.0004006,53.248,20.0891,87.6678,272.4781,0.00029931,7.252e-05,0.0,0 STARLINK-4301,1 52997U 22076M   24008.34535315  .00007252  00000-0  29931-3 0  9995,2 52997  53.2480  20.0891 0004006  87.6678 272.4781 15.25079945 84233,6868.682,94.421,493.299,487.796,0.0
52997.0,STARLINK-4301,PAYLOAD,2024-01-09 07:52:50,15.25097925,0.0004036,53.2475,15.5678,89.127,271.0192,0.00034236,8.35e-05,0.0,0 STARLINK-4301,1 52997U 22076M   24009.32835975  .00008350  00000-0  34236-3 0  9993,2 52997  53.2475  15.5678 0004036  89.1270 271.0192 15.25097925 83910,6868.628,94.42,493.266,487.721,0.0
52997.0,STARLINK-4301,PAYLOAD,2024-01-10 05:53:58,15.25116612,0.0004094,53.2473,11.3479,90.4839,269.663,0.00038181,9.358e-05,0.0,0 STARLINK-4301,1 52997U 22076M   24010.24582158  .00009358  00000-0  38181-3 0  9990,2 52997  53.2473  11.3479 0004094  90.4839 269.6630 15.25116612 84524,6868.572,94.419,493.249,487.625,0.0
52997.0,STARLINK-4301,PAYLOAD,2024-01-10 09:02:42,15.25119035,0.0004081,53.2471,10.7449,91.5923,268.5544,0.00038011,9.315e-05,0.0,0 STARLINK-4301,1 52997U 22076M   24010.37688654  .00009315  00000-0  38011-3 0  9997,2 52997  53.2471  10.7449 0004081  91.5923 268.5544 15.25119035 84078,6868.565,94.419,493.233,487.627,0.0
